ONEWEB-0363             
1 49289U 21090L   25014.07910089  .00000026  00000+0  32133-4 0  9993
2 49289  87.9247  17.7190 0001833  74.9045 285.2291 13.20773277162614
ONEWEB-0364             
1 49290U 21090M   25014.49575420  .00000086  00000+0  18039-3 0  9991
2 49290  87.9249  17.6639 0001701  85.2782 274.8545 13.20772247163794
ONEWEB-0365             
1 49291U 21090N   25013.38676654  .00000154  00000+0  35184-3 0  9996
2 49291  87.9143  48.2991 0001787  97.8281 262.3055 13.19727383157864
ONEWEB-0366             
1 49292U 21090P   25014.08423589 -.00000062  00000+0 -20067-3 0  9996
2 49292  87.8985  32.9360 0001744  90.1429 269.9901 13.14500847160665
ONEWEB-0367             
1 49293U 21090Q   25014.00176905  .00000037  00000+0  59550-4 0  9996
2 49293  87.9248  17.7292 0001718  91.6833 268.4498 13.20773510162595
ONEWEB-0368             
1 49294U 21090R   25014.50523018  .00000100  00000+0  21295-3 0  9998
2 49294  87.9249  17.6611 0001003  73.2198 286.9046 13.20772333163810
ONEWEB-0369             
1 49295U 21090S   25014.14019848 -.00000032  00000+0 -11134-3 0  9997
2 49295  87.9151  48.1664 0001744  97.5090 262.6241 13.19726673159246
ONEWEB-0370             
1 49296U 21090T   25013.70820940  .00000088  00000+0  18506-3 0  9991
2 49296  87.9246  17.7925 0002127  94.9314 265.2062 13.20768989161296
